start=new Date('2022-07-08T00:00:00.000Z').valueOf();
sats=[{"LAUNCH_DATE":"2022-03-03","REV_AT_EPOCH":"130","ELEMENT_SET_NO":"999","ECCENTRICITY":"0.00017340","TLE_LINE1":"1 51862U 22022L   22188.91667824 -.00072506  00000-0 -45792-2 0  9995","BSTAR":"-0.00457920000000","RA_OF_ASC_NODE":"268.0687","CLASSIFICATION_TYPE":"U","PERIAPSIS":"538.434","MEAN_ELEMENT_THEORY":"SGP4","REF_FRAME":"TEME","SITE":"AFETR","EPHEMERIS_TYPE":"0","APOAPSIS":"540.833","GP_ID":"207631973","MEAN_MOTION_DOT":"-0.00072506","OBJECT_ID":"2022-022L","RCS_SIZE":"LARGE","SEMIMAJOR_AXIS":"6917.768","EPOCH":"2022-07-07T22:00:00.999936","CENTER_NAME":"EARTH","MEAN_ANOMALY":"76.4940","DECAY_DATE":null,"OBJECT_TYPE":"PAYLOAD","INCLINATION":"53.2158","MEAN_MOTION":"15.08876659","NORAD_CAT_ID":"51862","COUNTRY_CODE":"US","OBJECT_NAME":"STARLINK-3508","PERIOD":"95.435","ARG_OF_PERICENTER":"50.8364","TLE_LINE2":"2 51862  53.2158 268.0687 0001734  50.8364  76.4940 15.08876659  1305","TIME_SYSTEM":"UTC","MEAN_MOTION_DDOT":"0.0000000000000","FILE":"3509470"},{"DECAY_DATE":null,"MEAN_ANOMALY":"178.4179","CENTER_NAME":"EARTH","EPOCH":"2022-07-07T22:00:00.999936","SEMIMAJOR_AXIS":"6917.844","RCS_SIZE":"LARGE","MEAN_MOTION":"15.08852057","INCLINATION":"53.2153","OBJECT_TYPE":"PAYLOAD","PERIOD":"95.437","ARG_OF_PERICENTER":"48.8961","OBJECT_NAME":"STARLINK-3555","COUNTRY_CODE":"US","NORAD_CAT_ID":"51863","FILE":"3509470","MEAN_MOTION_DDOT":"0.0000000000000","TIME_SYSTEM":"UTC","TLE_LINE2":"2 51863  53.2153 268.0888 0001671  48.8961 178.4179 15.08852057  1307","BSTAR":"-0.00176640000000","TLE_LINE1":"1 51863U 22022M   22188.91667824 -.00028300  00000-0 -17664-2 0  9996","ECCENTRICITY":"0.00016710","ELEMENT_SET_NO":"999","REV_AT_EPOCH":"130","LAUNCH_DATE":"2022-03-03","PERIAPSIS":"538.553","CLASSIFICATION_TYPE":"U","RA_OF_ASC_NODE":"268.0888","REF_FRAME":"TEME","MEAN_ELEMENT_THEORY":"SGP4","OBJECT_ID":"2022-022M","GP_ID":"207630749","MEAN_MOTION_DOT":"-0.00028300","APOAPSIS":"540.865","EPHEMERIS_TYPE":"0","SITE":"AFETR"},{"BSTAR":"-0.00163430000000","ECCENTRICITY":"0.00017650","TLE_LINE1":"1 51864U 22022N   22188.91667824 -.00026212  00000-0 -16343-2 0  9990","REV_AT_EPOCH":"130","ELEMENT_SET_NO":"999","LAUNCH_DATE":"2022-03-03","PERIAPSIS":"538.489","CLASSIFICATION_TYPE":"U","RA_OF_ASC_NODE":"268.0776","REF_FRAME":"TEME","MEAN_ELEMENT_THEORY":"SGP4","OBJECT_ID":"2022-022N","GP_ID":"207631500","MEAN_MOTION_DOT":"-0.00026212","APOAPSIS":"540.931","EPHEMERIS_TYPE":"0","SITE":"AFETR","DECAY_DATE":null,"EPOCH":"2022-07-07T22:00:00.999936","CENTER_NAME":"EARTH","MEAN_ANOMALY":"109.1150","SEMIMAJOR_AXIS":"6917.845","RCS_SIZE":"LARGE","MEAN_MOTION":"15.08851549","INCLINATION":"53.2144","OBJECT_TYPE":"PAYLOAD","ARG_OF_PERICENTER":"58.2328","PERIOD":"95.437","OBJECT_NAME":"STARLINK-3548","COUNTRY_CODE":"US","NORAD_CAT_ID":"51864","FILE":"3509470","MEAN_MOTION_DDOT":"0.0000000000000","TIME_SYSTEM":"UTC","TLE_LINE2":"2 51864  53.2144 268.0776 0001765  58.2328 109.1150 15.08851549  1305"},{"OBJECT_TYPE":"PAYLOAD","MEAN_MOTION":"15.08859665","INCLINATION":"53.2162","CENTER_NAME":"EARTH","MEAN_ANOMALY":"218.2727","EPOCH":"2022-07-07T22:00:00.999936","SEMIMAJOR_AXIS":"6917.820","RCS_SIZE":"LARGE","DECAY_DATE":null,"TLE_LINE2":"2 51865  53.2162 268.0916 0001674  49.0615 218.2727 15.08859665  1307","FILE":"3509470","MEAN_MOTION_DDOT":"0.0000000000000","TIME_SYSTEM":"UTC","COUNTRY_CODE":"US","NORAD_CAT_ID":"51865","ARG_OF_PERICENTER":"49.0615","PERIOD":"95.436","OBJECT_NAME":"STARLINK-3503","RA_OF_ASC_NODE":"268.0916","PERIAPSIS":"538.527","CLASSIFICATION_TYPE":"U","REV_AT_EPOCH":"130","ELEMENT_SET_NO":"999","LAUNCH_DATE":"2022-03-03","BSTAR":"-0.00183620000000","TLE_LINE1":"1 51865U 22022P   22188.91667824 -.00029408  00000-0 -18362-2 0  9994","ECCENTRICITY":"0.00016740","EPHEMERIS_TYPE":"0","SITE":"AFETR","OBJECT_ID":"2022-022P","GP_ID":"207631746","MEAN_MOTION_DOT":"-0.00029408","APOAPSIS":"540.843","MEAN_ELEMENT_THEORY":"SGP4","REF_FRAME":"TEME"},{"NORAD_CAT_ID":"51866","COUNTRY_CODE":"US","OBJECT_NAME":"STARLINK-3553","PERIOD":"95.436","ARG_OF_PERICENTER":"47.0599","TLE_LINE2":"2 51866  53.2141 268.0846 0001707  47.0599 160.2718 15.08857782  1307","TIME_SYSTEM":"UTC","FILE":"3509470","MEAN_MOTION_DDOT":"0.0000000000000","RCS_SIZE":"LARGE","MEAN_ANOMALY":"160.2718","EPOCH":"2022-07-07T22:00:00.999936","CENTER_NAME":"EARTH","SEMIMAJOR_AXIS":"6917.826","DECAY_DATE":null,"OBJECT_TYPE":"PAYLOAD","MEAN_MOTION":"15.08857782","INCLINATION":"53.2141","MEAN_ELEMENT_THEORY":"SGP4","REF_FRAME":"TEME","SITE":"AFETR","EPHEMERIS_TYPE":"0","MEAN_MOTION_DOT":"-0.00027317","GP_ID":"207632474","APOAPSIS":"540.872","OBJECT_ID":"2022-022Q","LAUNCH_DATE":"2022-03-03","REV_AT_EPOCH":"130","ELEMENT_SET_NO":"999","ECCENTRICITY":"0.00017070","TLE_LINE1":"1 51866U 22022Q   22188.91667824 -.00027317  00000-0 -17039-2 0  9992","BSTAR":"-0.00170390000000","RA_OF_ASC_NODE":"268.0846","CLASSIFICATION_TYPE":"U","PERIAPSIS":"538.510"},{"REV_AT_EPOCH":"130","ELEMENT_SET_NO":"999","LAUNCH_DATE":"2022-03-03","BSTAR":"-0.00466190000000","ECCENTRICITY":"0.00017860","TLE_LINE1":"1 51867U 22022R   22188.91667824 -.00073798  00000-0 -46619-2 0  9993","RA_OF_ASC_NODE":"268.0961","PERIAPSIS":"538.397","CLASSIFICATION_TYPE":"U","MEAN_ELEMENT_THEORY":"SGP4","REF_FRAME":"TEME","EPHEMERIS_TYPE":"0","SITE":"AFETR","OBJECT_ID":"2022-022R","APOAPSIS":"540.868","GP_ID":"207631250","MEAN_MOTION_DOT":"-0.00073798","SEMIMAJOR_AXIS":"6917.767","EPOCH":"2022-07-07T22:00:00.999936","CENTER_NAME":"EARTH","MEAN_ANOMALY":"241.8215","RCS_SIZE":"LARGE","DECAY_DATE":null,"OBJECT_TYPE":"PAYLOAD","INCLINATION":"53.2175","MEAN_MOTION":"15.08876965","COUNTRY_CODE":"US","NORAD_CAT_ID":"51867","PERIOD":"95.435","ARG_OF_PERICENTER":"45.5102","OBJECT_NAME":"STARLINK-3590","TLE_LINE2":"2 51867  53.2175 268.0961 0001786  45.5102 241.8215 15.08876965  1305","MEAN_MOTION_DDOT":"0.0000000000000","FILE":"3509470","TIME_SYSTEM":"UTC"},{"OBJECT_NAME":"STARLINK-3578","ARG_OF_PERICENTER":"45.7039","PERIOD":"95.437","NORAD_CAT_ID":"51868","COUNTRY_CODE":"US","TIME_SYSTEM":"UTC","FILE":"3509470","MEAN_MOTION_DDOT":"0.0000000000000","TLE_LINE2":"2 51868  53.2161 268.0911 0001830  45.7039 201.6025 15.08856224  1306","DECAY_DATE":null,"RCS_SIZE":"LARGE","EPOCH":"2022-07-07T22:00:00.999936","MEAN_ANOMALY":"201.6025","CENTER_NAME":"EARTH","SEMIMAJOR_AXIS":"6917.831","MEAN_MOTION":"15.08856224","INCLINATION":"53.2161","OBJECT_TYPE":"PAYLOAD","REF_FRAME":"TEME","MEAN_ELEMENT_THEORY":"SGP4","MEAN_MOTION_DOT":"-0.00028073","GP_ID":"207632001","APOAPSIS":"540.962","OBJECT_ID":"2022-022S","SITE":"AFETR","EPHEMERIS_TYPE":"0","ECCENTRICITY":"0.00018300","TLE_LINE1":"1 51868U 22022S   22188.91667824 -.00028073  00000-0 -17518-2 0  9996","BSTAR":"-0.00175180000000","LAUNCH_DATE":"2022-03-03","ELEMENT_SET_NO":"999","REV_AT_EPOCH":"130","CLASSIFICATION_TYPE":"U","PERIAPSIS":"538.430","RA_OF_ASC_NODE":"268.0911"},{"MEAN_ELEMENT_THEORY":"SGP4","REF_FRAME":"TEME","SITE":"AFETR","EPHEMERIS_TYPE":"0","GP_ID":"207632247","MEAN_MOTION_DOT":"-0.00029110","APOAPSIS":"540.826","OBJECT_ID":"2022-022T","LAUNCH_DATE":"2022-03-03","REV_AT_EPOCH":"130","ELEMENT_SET_NO":"999","ECCENTRICITY":"0.00016520","TLE_LINE1":"1 51869U 22022T   22188.91667824 -.00029110  00000-0 -18173-2 0  9998","BSTAR":"-0.00181730000000","RA_OF_ASC_NODE":"268.0859","CLASSIFICATION_TYPE":"U","PERIAPSIS":"538.541","NORAD_CAT_ID":"51869","COUNTRY_CODE":"US","OBJECT_NAME":"STARLINK-3588","ARG_OF_PERICENTER":"44.2674","PERIOD":"95.436","TLE_LINE2":"2 51869  53.2192 268.0859 0001652  44.2674 303.0554 15.08860300  1307","TIME_SYSTEM":"UTC","FILE":"3509470","MEAN_MOTION_DDOT":"0.0000000000000","RCS_SIZE":"LARGE","CENTER_NAME":"EARTH","MEAN_ANOMALY":"303.0554","EPOCH":"2022-07-07T22:00:00.999936","SEMIMAJOR_AXIS":"6917.818","DECAY_DATE":null,"OBJECT_TYPE":"PAYLOAD","MEAN_MOTION":"15.08860300","INCLINATION":"53.2192"},{"RA_OF_ASC_NODE":"268.0954","CLASSIFICATION_TYPE":"U","PERIAPSIS":"538.496","LAUNCH_DATE":"2022-03-03","REV_AT_EPOCH":"130","ELEMENT_SET_NO":"999","ECCENTRICITY":"0.00017590","TLE_LINE1":"1 51870U 22022U   22188.91667824 -.00029455  00000-0 -18396-2 0  9999","BSTAR":"-0.00183960000000","SITE":"AFETR","EPHEMERIS_TYPE":"0","APOAPSIS":"540.930","GP_ID":"207631974","MEAN_MOTION_DOT":"-0.00029455","OBJECT_ID":"2022-022U","MEAN_ELEMENT_THEORY":"SGP4","REF_FRAME":"TEME","OBJECT_TYPE":"PAYLOAD","INCLINATION":"53.2176","MEAN_MOTION":"15.08850570","RCS_SIZE":"LARGE","SEMIMAJOR_AXIS":"6917.848","MEAN_ANOMALY":"263.2984","EPOCH":"2022-07-07T22:00:00.999936","CENTER_NAME":"EARTH","DECAY_DATE":null,"TLE_LINE2":"2 51870  53.2176 268.0954 0001759  44.0007 263.2984 15.08850570  1305","TIME_SYSTEM":"UTC","MEAN_MOTION_DDOT":"0.0000000000000","FILE":"3509470","NORAD_CAT_ID":"51870","COUNTRY_CODE":"US","OBJECT_NAME":"STARLINK-3591","PERIOD":"95.437","ARG_OF_PERICENTER":"44.0007"},{"MEAN_MOTION_DDOT":"0.0000000000000","FILE":"3509470","TIME_SYSTEM":"UTC","TLE_LINE2":"2 51871  53.2193 268.0836 0001969  36.9374 330.4020 15.08875090  1306","PERIOD":"95.435","ARG_OF_PERICENTER":"36.9374","OBJECT_NAME":"STARLINK-3567","COUNTRY_CODE":"US","NORAD_CAT_ID":"51871","INCLINATION":"53.2193","MEAN_MOTION":"15.08875090","OBJECT_TYPE":"PAYLOAD","DECAY_DATE":null,"SEMIMAJOR_AXIS":"6917.773","EPOCH":"2022-07-07T22:00:00.999936","CENTER_NAME":"EARTH","MEAN_ANOMALY":"330.4020","RCS_SIZE":"LARGE","OBJECT_ID":"2022-022V","APOAPSIS":"541.000","GP_ID":"207630750","MEAN_MOTION_DOT":"-0.00077456","EPHEMERIS_TYPE":"0","SITE":"AFETR","REF_FRAME":"TEME","MEAN_ELEMENT_THEORY":"SGP4","PERIAPSIS":"538.276","CLASSIFICATION_TYPE":"U","RA_OF_ASC_NODE":"268.0836","BSTAR":"-0.00489660000000","ECCENTRICITY":"0.00019690","TLE_LINE1":"1 51871U 22022V   22188.91667824 -.00077456  00000-0 -48966-2 0  9990","REV_AT_EPOCH":"130","ELEMENT_SET_NO":"999","LAUNCH_DATE":"2022-03-03"}];
